{
  "type": "FeatureCollection",
  "features": [
    {
      "type": "Feature",
      "properties": {
        "norad_id": 41866,
        "name": "GOES 16",
        "group": "weather",
        "lat": 0.07550199991370825,
        "lon": 163.98102298179015,
        "alt_km": 35789.297589560105,
        "timestamp": "2025-12-25T11:37:44.064865+00:00",
        "meta_object_name": "GOES 16",
        "meta_object_id": "2016-071A",
        "meta_epoch": "2025-12-24T12:07:46.794144",
        "meta_mean_motion": 1.00273928,
        "meta_eccentricity": 0.00030223,
        "meta_inclination": 0.0751,
        "meta_ra_of_asc_node": 101.9123,
        "meta_arg_of_pericenter": 169.4084,
        "meta_mean_anomaly": 259.2386,
        "meta_ephemeris_type": 0,
        "meta_classification_type": "U",
        "meta_norad_cat_id": 41866,
        "meta_element_set_no": 999,
        "meta_rev_at_epoch": 3335,
        "meta_bstar": 0,
        "meta_mean_motion_dot": -7e-07,
        "meta_mean_motion_ddot": 0,
        "tle_line1": "1 41866U 16071A   25358.50540271 -.00000070  00000+0  00000+0 0  9993",
        "tle_line2": "2 41866   0.0751 101.9123 0003022 169.4084 259.2386  1.00273928 33357"
      },
      "geometry": {
        "type": "Point",
        "coordinates": [
          163.98102298179015,
          0.07550199991370825
        ]
      }
    },
    {
      "type": "Feature",
      "properties": {
        "norad_id": 41882,
        "name": "FENGYUN 4A",
        "group": "weather",
        "lat": -1.4336069133831357,
        "lon": 32.29912663696236,
        "alt_km": 35807.188287852,
        "timestamp": "2025-12-25T11:37:44.064878+00:00",
        "meta_object_name": "FENGYUN 4A",
        "meta_object_id": "2016-077A",
        "meta_epoch": "2025-12-25T00:47:51.835776",
        "meta_mean_motion": 1.0026324,
        "meta_eccentricity": 0.0004499,
        "meta_inclination": 1.8783,
        "meta_ra_of_asc_node": 82.2707,
        "meta_arg_of_pericenter": 142.9856,
        "meta_mean_anomaly": 4.1226,
        "meta_ephemeris_type": 0,
        "meta_classification_type": "U",
        "meta_norad_cat_id": 41882,
        "meta_element_set_no": 999,
        "meta_rev_at_epoch": 3318,
        "meta_bstar": 0,
        "meta_mean_motion_dot": -3.37e-06,
        "meta_mean_motion_ddot": 0,
        "tle_line1": "1 41882U 16077A   25359.03323884 -.00000337  00000+0  00000+0 0  9991",
        "tle_line2": "2 41882   1.8783  82.2707 0004499 142.9856   4.1226  1.00263240 33187"
      },
      "geometry": {
        "type": "Point",
        "coordinates": [
          32.29912663696236,
          -1.4336069133831357
        ]
      }
    },
    {
      "type": "Feature",
      "properties": {
        "norad_id": 41884,
        "name": "CYGFM05",
        "group": "weather",
        "lat": -21.674236607704803,
        "lon": 178.52026825012396,
        "alt_km": 421.38194614601343,
        "timestamp": "2025-12-25T11:37:44.064889+00:00",
        "meta_object_name": "CYGFM05",
        "meta_object_id": "2016-078A",
        "meta_epoch": "2025-12-25T01:23:45.430944",
        "meta_mean_motion": 15.4809271,
        "meta_eccentricity": 0.001058,
        "meta_inclination": 34.9604,
        "meta_ra_of_asc_node": 326.6388,
        "meta_arg_of_pericenter": 289.3009,
        "meta_mean_anomaly": 70.6568,
        "meta_ephemeris_type": 0,
        "meta_classification_type": "U",
        "meta_norad_cat_id": 41884,
        "meta_element_set_no": 999,
        "meta_rev_at_epoch": 50167,
        "meta_bstar": 0.00037646,
        "meta_mean_motion_dot": 0.00020396,
        "meta_mean_motion_ddot": 0,
        "tle_line1": "1 41884U 16078A   25359.05816471  .00020396  00000+0  37646-3 0  9991",
        "tle_line2": "2 41884  34.9604 326.6388 0010580 289.3009  70.6568 15.48092710501672"
      },
      "geometry": {
        "type": "Point",
        "coordinates": [
          178.52026825012396,
          -21.674236607704803
        ]
      }
    },
    {
      "type": "Feature",
      "properties": {
        "norad_id": 41885,
        "name": "CYGFM04",
        "group": "weather",
        "lat": -24.552393850616845,
        "lon": 159.13567723509243,
        "alt_km": 415.66030184892134,
        "timestamp": "2025-12-25T11:37:44.064900+00:00",
        "meta_object_name": "CYGFM04",
        "meta_object_id": "2016-078B",
        "meta_epoch": "2025-12-25T02:55:55.495776",
        "meta_mean_motion": 15.50887952,
        "meta_eccentricity": 0.0009137,
        "meta_inclination": 34.935,
        "meta_ra_of_asc_node": 300.6357,
        "meta_arg_of_pericenter": 314.4705,
        "meta_mean_anomaly": 45.5269,
        "meta_ephemeris_type": 0,
        "meta_classification_type": "U",
        "meta_norad_cat_id": 41885,
        "meta_element_set_no": 999,
        "meta_rev_at_epoch": 50186,
        "meta_bstar": 0.00039917,
        "meta_mean_motion_dot": 0.00023881,
        "meta_mean_motion_ddot": 0,
        "tle_line1": "1 41885U 16078B   25359.12217009  .00023881  00000+0  39917-3 0  9997",
        "tle_line2": "2 41885  34.9350 300.6357 0009137 314.4705  45.5269 15.50887952501861"
      },
      "geometry": {
        "type": "Point",
        "coordinates": [
          159.13567723509243,
          -24.552393850616845
        ]
      }
    },
    {
      "type": "Feature",
      "properties": {
        "norad_id": 41886,
        "name": "CYGFM02",
        "group": "weather",
        "lat": -28.35428016420376,
        "lon": -114.19888373430896,
        "alt_km": 404.6016804426554,
        "timestamp": "2025-12-25T11:37:44.064911+00:00",
        "meta_object_name": "CYGFM02",
        "meta_object_id": "2016-078C",
        "meta_epoch": "2025-12-25T02:36:29.026656",
        "meta_mean_motion": 15.52304448,
        "meta_eccentricity": 0.001078,
        "meta_inclination": 34.9438,
        "meta_ra_of_asc_node": 298.8882,
        "meta_arg_of_pericenter": 315.8617,
        "meta_mean_anomaly": 44.1245,
        "meta_ephemeris_type": 0,
        "meta_classification_type": "U",
        "meta_norad_cat_id": 41886,
        "meta_element_set_no": 999,
        "meta_rev_at_epoch": 50199,
        "meta_bstar": 0.00041088,
        "meta_mean_motion_dot": 0.00025893,
        "meta_mean_motion_ddot": 0,
        "tle_line1": "1 41886U 16078C   25359.10866929  .00025893  00000+0  41088-3 0  9994",
        "tle_line2": "2 41886  34.9438 298.8882 0010780 315.8617  44.1245 15.52304448501992"
      },
      "geometry": {
        "type": "Point",
        "coordinates": [
          -114.19888373430896,
          -28.35428016420376
        ]
      }
    },
    {
      "type": "Feature",
      "properties": {
        "norad_id": 41887,
        "name": "CYGFM01",
        "group": "weather",
        "lat": -32.18930140498158,
        "lon": -98.24762304414656,
        "alt_km": 415.4606418363719,
        "timestamp": "2025-12-25T11:37:44.064922+00:00",
        "meta_object_name": "CYGFM01",
        "meta_object_id": "2016-078D",
        "meta_epoch": "2025-12-25T02:38:26.280096",
        "meta_mean_motion": 15.48689153,
        "meta_eccentricity": 0.0010368,
        "meta_inclination": 34.9435,
        "meta_ra_of_asc_node": 328.5608,
        "meta_arg_of_pericenter": 281.9479,
        "meta_mean_anomaly": 78.0081,
        "meta_ephemeris_type": 0,
        "meta_classification_type": "U",
        "meta_norad_cat_id": 41887,
        "meta_element_set_no": 999,
        "meta_rev_at_epoch": 50162,
        "meta_bstar": 0.00040129,
        "meta_mean_motion_dot": 0.0002221,
        "meta_mean_motion_ddot": 0,
        "tle_line1": "1 41887U 16078D   25359.11002639  .00022210  00000+0  40129-3 0  9991",
        "tle_line2": "2 41887  34.9435 328.5608 0010368 281.9479  78.0081 15.48689153501626"
      },
      "geometry": {
        "type": "Point",
        "coordinates": [
          -98.24762304414656,
          -32.18930140498158
        ]
      }
    },
    {
      "type": "Feature",
      "properties": {
        "norad_id": 41888,
        "name": "CYGFM08",
        "group": "weather",
        "lat": 19.78868763179799,
        "lon": -20.034422947324003,
        "alt_km": 412.47875367270444,
        "timestamp": "2025-12-25T11:37:44.064933+00:00",
        "meta_object_name": "CYGFM08",
        "meta_object_id": "2016-078E",
        "meta_epoch": "2025-12-25T02:11:54.201120",
        "meta_mean_motion": 15.49927321,
        "meta_eccentricity": 0.0011479,
        "meta_inclination": 34.9462,
        "meta_ra_of_asc_node": 311.5279,
        "meta_arg_of_pericenter": 305.4464,
        "meta_mean_anomaly": 54.5187,
        "meta_ephemeris_type": 0,
        "meta_classification_type": "U",
        "meta_norad_cat_id": 41888,
        "meta_element_set_no": 999,
        "meta_rev_at_epoch": 50185,
        "meta_bstar": 0.00039057,
        "meta_mean_motion_dot": 0.00022597,
        "meta_mean_motion_ddot": 0,
        "tle_line1": "1 41888U 16078E   25359.09159955  .00022597  00000+0  39057-3 0  9999",
        "tle_line2": "2 41888  34.9462 311.5279 0011479 305.4464  54.5187 15.49927321501857"
      },
      "geometry": {
        "type": "Point",
        "coordinates": [
          -20.034422947324003,
          19.78868763179799
        ]
      }
    }
  ]
}